{"type": "FeatureCollection", "features": [{"type": "Feature", "properties": {"norad_id": 26766, "name": "INTELSAT 10 (IS-10)", "group": "intelsat", "lat": -5.00427760556998, "lon": -84.00532797886311, "alt_km": 36093.43860398689, "timestamp": "2025-12-26T06:43:29.174170+00:00", "meta": {"OBJECT_NAME": "INTELSAT 10 (IS-10)", "OBJECT_ID": "2001-019A", "EPOCH": "2025-12-25T19:25:55.835328", "MEAN_MOTION": 0.9907201, "ECCENTRICITY": 0.00080047, "INCLINATION": 8.6586, "RA_OF_ASC_NODE": 61.0243, "ARG_OF_PERICENTER": 229.8346, "MEAN_ANOMALY": 177.6501, "EPHEMERIS_TYPE": 0, "CLASSIFICATION_TYPE": "U", "NORAD_CAT_ID": 26766, "ELEMENT_SET_NO": 999, "REV_AT_EPOCH": 4386, "BSTAR": 0, "MEAN_MOTION_DOT": 3.8e-07, "MEAN_MOTION_DDOT": 0}, "tle": {"line1": "1 26766U 01019A   25359.80967402  .00000038  00000+0  00000+0 0  9997", "line2": "2 26766   8.6586  61.0243 0008004 229.8346 177.6501  0.99072010 43860"}}, "geometry": {"type": "Point", "coordinates": [-84.00532797886311, -5.00427760556998]}}, {"type": "Feature", "properties": {"norad_id": 26900, "name": "INTELSAT 902 (IS-902)", "group": "intelsat", "lat": 5.408709065458202, "lon": 145.54873744570844, "alt_km": 35795.820699455224, "timestamp": "2025-12-26T06:43:29.174193+00:00", "meta": {"OBJECT_NAME": "INTELSAT 902 (IS-902)", "OBJECT_ID": "2001-039A", "EPOCH": "2025-12-15T13:09:02.081664", "MEAN_MOTION": 1.0027087, "ECCENTRICITY": 0.00045028, "INCLINATION": 5.6536, "RA_OF_ASC_NODE": 74.0372, "ARG_OF_PERICENTER": 189.6359, "MEAN_ANOMALY": 327.9329, "EPHEMERIS_TYPE": 0, "CLASSIFICATION_TYPE": "U", "NORAD_CAT_ID": 26900, "ELEMENT_SET_NO": 999, "REV_AT_EPOCH": 8885, "BSTAR": 0, "MEAN_MOTION_DOT": -2.65e-06, "MEAN_MOTION_DDOT": 0}, "tle": {"line1": "1 26900U 01039A   25349.54794076 -.00000265  00000+0  00000+0 0  9997", "line2": "2 26900   5.6536  74.0372 0004502 189.6359 327.9329  1.00270870 88858"}}, "geometry": {"type": "Point", "coordinates": [145.54873744570844, 5.408709065458202]}}, {"type": "Feature", "properties": {"norad_id": 27380, "name": "INTELSAT 904 (IS-904)", "group": "intelsat", "lat": 6.488893271259541, "lon": 164.42728352314273, "alt_km": 35792.434861256064, "timestamp": "2025-12-26T06:43:29.174211+00:00", "meta": {"OBJECT_NAME": "INTELSAT 904 (IS-904)", "OBJECT_ID": "2002-007A", "EPOCH": "2025-12-24T23:13:20.404128", "MEAN_MOTION": 1.00272977, "ECCENTRICITY": 0.00019711, "INCLINATION": 6.4832, "RA_OF_ASC_NODE": 71.2913, "ARG_OF_PERICENTER": 246.5744, "MEAN_ANOMALY": 92.7188, "EPHEMERIS_TYPE": 0, "CLASSIFICATION_TYPE": "U", "NORAD_CAT_ID": 27380, "ELEMENT_SET_NO": 999, "REV_AT_EPOCH": 5001, "BSTAR": 0, "MEAN_MOTION_DOT": -2.07e-06, "MEAN_MOTION_DDOT": 0}, "tle": {"line1": "1 27380U 02007A   25358.96759727 -.00000207  00000+0  00000+0 0  9992", "line2": "2 27380   6.4832  71.2913 0001971 246.5744  92.7188  1.00272977 50014"}}, "geometry": {"type": "Point", "coordinates": [164.42728352314273, 6.488893271259541]}}, {"type": "Feature", "properties": {"norad_id": 27426, "name": "DIRECTV 5 (TEMPO 1)", "group": "intelsat", "lat": 0.6557428084067972, "lon": 85.7610032746035, "alt_km": 35799.68979428599, "timestamp": "2025-12-26T06:43:29.174225+00:00", "meta": {"OBJECT_NAME": "DIRECTV 5 (TEMPO 1)", "OBJECT_ID": "2002-023A", "EPOCH": "2025-12-25T07:28:38.731296", "MEAN_MOTION": 1.00271555, "ECCENTRICITY": 0.0003354, "INCLINATION": 4.4323, "RA_OF_ASC_NODE": 77.5052, "ARG_OF_PERICENTER": 204.4666, "MEAN_ANOMALY": 174.1445, "EPHEMERIS_TYPE": 0, "CLASSIFICATION_TYPE": "U", "NORAD_CAT_ID": 27426, "ELEMENT_SET_NO": 999, "REV_AT_EPOCH": 8638, "BSTAR": 0, "MEAN_MOTION_DOT": -3.7e-07, "MEAN_MOTION_DDOT": 0}, "tle": {"line1": "1 27426U 02023A   25359.31155939 -.00000037  00000+0  00000+0 0  9997", "line2": "2 27426   4.4323  77.5052 0003354 204.4666 174.1445  1.00271555 86385"}}, "geometry": {"type": "Point", "coordinates": [85.7610032746035, 0.6557428084067972]}}, {"type": "Feature", "properties": {"norad_id": 27438, "name": "INTELSAT 905 (IS-905)", "group": "intelsat", "lat": -1.4259858937145147, "lon": 58.81654187120505, "alt_km": 35794.50399393011, "timestamp": "2025-12-26T06:43:29.174238+00:00", "meta": {"OBJECT_NAME": "INTELSAT 905 (IS-905)", "OBJECT_ID": "2002-027A", "EPOCH": "2025-12-23T05:41:27.377952", "MEAN_MOTION": 1.00273243, "ECCENTRICITY": 0.00027491, "INCLINATION": 6.3102, "RA_OF_ASC_NODE": 71.9349, "ARG_OF_PERICENTER": 206.5226, "MEAN_ANOMALY": 121.7385, "EPHEMERIS_TYPE": 0, "CLASSIFICATION_TYPE": "U", "NORAD_CAT_ID": 27438, "ELEMENT_SET_NO": 999, "REV_AT_EPOCH": 4959, "BSTAR": 0, "MEAN_MOTION_DOT": 1.12e-06, "MEAN_MOTION_DDOT": 0}, "tle": {"line1": "1 27438U 02027A   25357.23712243  .00000112  00000+0  00000+0 0  9993", "line2": "2 27438   6.3102  71.9349 0002749 206.5226 121.7385  1.00273243 49592"}}, "geometry": {"type": "Point", "coordinates": [58.81654187120505, -1.4259858937145147]}}, {"type": "Feature", "properties": {"norad_id": 27445, "name": "GALAXY 3C (G-3C)", "group": "intelsat", "lat": 1.1812854215992783, "lon": 100.99744506548593, "alt_km": 35784.27678246088, "timestamp": "2025-12-26T06:43:29.174252+00:00", "meta": {"OBJECT_NAME": "GALAXY 3C (G-3C)", "OBJECT_ID": "2002-030A", "EPOCH": "2025-12-25T21:10:33.078720", "MEAN_MOTION": 1.00271502, "ECCENTRICITY": 9.911e-05, "INCLINATION": 3.2945, "RA_OF_ASC_NODE": 80.3667, "ARG_OF_PERICENTER": 85.951, "MEAN_ANOMALY": 151.1017, "EPHEMERIS_TYPE": 0, "CLASSIFICATION_TYPE": "U", "NORAD_CAT_ID": 27445, "ELEMENT_SET_NO": 999, "REV_AT_EPOCH": 4475, "BSTAR": 0, "MEAN_MOTION_DOT": -1.32e-06, "MEAN_MOTION_DDOT": 0}, "tle": {"line1": "1 27445U 02030A   25359.88232730 -.00000132  00000+0  00000+0 0  9999", "line2": "2 27445   3.2945  80.3667 0000991  85.9510 151.1017  1.00271502 44758"}}, "geometry": {"type": "Point", "coordinates": [100.99744506548593, 1.1812854215992783]}}, {"type": "Feature", "properties": {"norad_id": 27513, "name": "INTELSAT 906 (IS-906)", "group": "intelsat", "lat": -0.47596978131236434, "lon": -100.0162822414501, "alt_km": 35761.391058677786, "timestamp": "2025-12-26T06:43:29.174264+00:00", "meta": {"OBJECT_NAME": "INTELSAT 906 (IS-906)", "OBJECT_ID": "2002-041A", "EPOCH": "2025-12-25T18:30:25.911072", "MEAN_MOTION": 1.00270895, "ECCENTRICITY": 0.00061771, "INCLINATION": 5.3631, "RA_OF_ASC_NODE": 75.0767, "ARG_OF_PERICENTER": 202.1174, "MEAN_ANOMALY": 159.0704, "EPHEMERIS_TYPE": 0, "CLASSIFICATION_TYPE": "U", "NORAD_CAT_ID": 27513, "ELEMENT_SET_NO": 999, "REV_AT_EPOCH": 8529, "BSTAR": 0, "MEAN_MOTION_DOT": 3.3e-07, "MEAN_MOTION_DDOT": 0}, "tle": {"line1": "1 27513U 02041A   25359.77113323  .00000033  00000+0  00000+0 0  9990", "line2": "2 27513   5.3631  75.0767 0006177 202.1174 159.0704  1.00270895 85290"}}, "geometry": {"type": "Point", "coordinates": [-100.0162822414501, -0.47596978131236434]}}, {"type": "Feature", "properties": {"norad_id": 27954, "name": "GALAXY 13 (HORIZONS-1)", "group": "intelsat", "lat": -0.6193670199205132, "lon": 45.88836974510773, "alt_km": 35792.693273495366, "timestamp": "2025-12-26T06:43:29.174303+00:00", "meta": {"OBJECT_NAME": "GALAXY 13 (HORIZONS-1)", "OBJECT_ID": "2003-044A", "EPOCH": "2025-12-25T17:29:16.766592", "MEAN_MOTION": 1.00272154, "ECCENTRICITY": 0.00023073, "INCLINATION": 0.9704, "RA_OF_ASC_NODE": 86.3013, "ARG_OF_PERICENTER": 186.2306, "MEAN_ANOMALY": 294.243, "EPHEMERIS_TYPE": 0, "CLASSIFICATION_TYPE": "U", "NORAD_CAT_ID": 27954, "ELEMENT_SET_NO": 999, "REV_AT_EPOCH": 4483, "BSTAR": 0, "MEAN_MOTION_DOT": 1.54e-06, "MEAN_MOTION_DDOT": 0}, "tle": {"line1": "1 27954U 03044A   25359.72866628  .00000154  00000+0  00000+0 0  9995", "line2": "2 27954   0.9704  86.3013 0002307 186.2306 294.2430  1.00272154 44833"}}, "geometry": {"type": "Point", "coordinates": [45.88836974510773, -0.6193670199205132]}}, {"type": "Feature", "properties": {"norad_id": 28358, "name": "INTELSAT 10-02", "group": "intelsat", "lat": 0.008181670525793367, "lon": -165.07572708076796, "alt_km": 35788.225090547625, "timestamp": "2025-12-26T06:43:29.174321+00:00", "meta": {"OBJECT_NAME": "INTELSAT 10-02", "OBJECT_ID": "2004-022A", "EPOCH": "2025-12-25T19:54:40.343904", "MEAN_MOTION": 1.00269837, "ECCENTRICITY": 0.00011908, "INCLINATION": 0.0181, "RA_OF_ASC_NODE": 37.2184, "ARG_OF_PERICENTER": 266.6256, "MEAN_ANOMALY": 88.4557, "EPHEMERIS_TYPE": 0, "CLASSIFICATION_TYPE": "U", "NORAD_CAT_ID": 28358, "ELEMENT_SET_NO": 999, "REV_AT_EPOCH": 7881, "BSTAR": 0, "MEAN_MOTION_DOT": 1.1e-07, "MEAN_MOTION_DDOT": 0}, "tle": {"line1": "1 28358U 04022A   25359.82963361  .00000011  00000+0  00000+0 0  9996", "line2": "2 28358   0.0181  37.2184 0001190 266.6256  88.4557  1.00269837 78814"}}, "geometry": {"type": "Point", "coordinates": [-165.07572708076796, 0.008181670525793367]}}, {"type": "Feature", "properties": {"norad_id": 28626, "name": "XM-3 (RHYTHM)", "group": "intelsat", "lat": 0.04320994398348728, "lon": -114.21364274727699, "alt_km": 36163.683322487945, "timestamp": "2025-12-26T06:43:29.174335+00:00", "meta": {"OBJECT_NAME": "XM-3 (RHYTHM)", "OBJECT_ID": "2005-008A", "EPOCH": "2025-12-25T21:53:38.819040", "MEAN_MOTION": 0.98950334, "ECCENTRICITY": 0.00022251, "INCLINATION": 0.2066, "RA_OF_ASC_NODE": 82.2869, "ARG_OF_PERICENTER": 272.6004, "MEAN_ANOMALY": 119.8578, "EPHEMERIS_TYPE": 0, "CLASSIFICATION_TYPE": "U", "NORAD_CAT_ID": 28626, "ELEMENT_SET_NO": 999, "REV_AT_EPOCH": 4088, "BSTAR": 0, "MEAN_MOTION_DOT": 8.9e-07, "MEAN_MOTION_DDOT": 0}, "tle": {"line1": "1 28626U 05008A   25359.91225485  .00000089  00000+0  00000+0 0  9992", "line2": "2 28626   0.2066  82.2869 0002225 272.6004 119.8578  0.98950334 40887"}}, "geometry": {"type": "Point", "coordinates": [-114.21364274727699, 0.04320994398348728]}}]}